[{"OBJECT_NAME":"AEROCUBE 5C","OBJECT_ID":"2015-058B","EPOCH":"2026-03-09T17:05:14.563104","MEAN_MOTION":14.90857126,"ECCENTRICITY":0.01306722,"INCLINATION":64.7674,"RA_OF_ASC_NODE":211.9094,"ARG_OF_PERICENTER":102.486,"MEAN_ANOMALY":259.0908,"EPHEMERIS_TYPE":0,"CLASSIFICATION_TYPE":"U","NORAD_CAT_ID":40965,"ELEMENT_SET_NO":999,"REV_AT_EPOCH":35082,"BSTAR":0.0004279104,"MEAN_MOTION_DOT":4.804e-5,"MEAN_MOTION_DDOT":0},{"OBJECT_NAME":"STARLINK-3562","OBJECT_ID":"2022-022K","EPOCH":"2026-03-09T23:29:22.419744","MEAN_MOTION":15.08837729,"ECCENTRICITY":0.00013025,"INCLINATION":53.2181,"RA_OF_ASC_NODE":7.8249,"ARG_OF_PERICENTER":77.2749,"MEAN_ANOMALY":282.8389,"EPHEMERIS_TYPE":0,"CLASSIFICATION_TYPE":"U","NORAD_CAT_ID":51861,"ELEMENT_SET_NO":999,"REV_AT_EPOCH":22307,"BSTAR":0.00032739848,"MEAN_MOTION_DOT":4.926e-5,"MEAN_MOTION_DDOT":0}]
