AEROCUBE 5C             
1 40965U 15058B   26068.71197411  .00004804  00000+0  42791-3 0  9997
2 40965  64.7674 211.9094 0130672 102.4860 259.0908 14.90857126350820
STARLINK-3562           
1 51861U 22022K   26068.97873171  .00004926  00000+0  32740-3 0  9993
2 51861  53.2181   7.8249 0001302  77.2749 282.8389 15.08837729223079
